[{"OBJECT_NAME":"LEMUR-2-GREENBERG","OBJECT_ID":"2017-042N","EPOCH":"2026-03-09T11:05:17.256192","MEAN_MOTION":15.27971352,"ECCENTRICITY":0.00091572,"INCLINATION":97.3781,"RA_OF_ASC_NODE":249.8007,"ARG_OF_PERICENTER":4.0119,"MEAN_ANOMALY":356.1192,"EPHEMERIS_TYPE":0,"CLASSIFICATION_TYPE":"U","NORAD_CAT_ID":42837,"ELEMENT_SET_NO":999,"REV_AT_EPOCH":47314,"BSTAR":0.00072539172,"MEAN_MOTION_DOT":0.00019778,"MEAN_MOTION_DDOT":0},{"OBJECT_NAME":"STARLINK-35336","OBJECT_ID":"2025-232B","EPOCH":"2026-03-09T09:08:00.187008","MEAN_MOTION":15.30196365,"ECCENTRICITY":0.00012015,"INCLINATION":53.1582,"RA_OF_ASC_NODE":104.9612,"ARG_OF_PERICENTER":92.3455,"MEAN_ANOMALY":267.7684,"EPHEMERIS_TYPE":0,"CLASSIFICATION_TYPE":"U","NORAD_CAT_ID":66006,"ELEMENT_SET_NO":999,"REV_AT_EPOCH":2338,"BSTAR":0.0007853787,"MEAN_MOTION_DOT":0.00022971,"MEAN_MOTION_DDOT":0}]
